[{"OBJECT_NAME":"STARLINK-33744","OBJECT_ID":"2025-070M","EPOCH":"2026-03-09T22:48:28.283904","MEAN_MOTION":15.27602912,"ECCENTRICITY":0.00021785,"INCLINATION":42.9994,"RA_OF_ASC_NODE":258.5545,"ARG_OF_PERICENTER":261.243,"MEAN_ANOMALY":98.8175,"EPHEMERIS_TYPE":0,"CLASSIFICATION_TYPE":"U","NORAD_CAT_ID":63471,"ELEMENT_SET_NO":999,"REV_AT_EPOCH":5301,"BSTAR":0.0013124845,"MEAN_MOTION_DOT":0.00036058,"MEAN_MOTION_DDOT":0},{"OBJECT_NAME":"COSMOS 1758","OBJECT_ID":"1986-046A","EPOCH":"2026-03-09T22:23:33.220896","MEAN_MOTION":15.25706639,"ECCENTRICITY":0.00131526,"INCLINATION":82.4607,"RA_OF_ASC_NODE":143.3203,"ARG_OF_PERICENTER":337.3781,"MEAN_ANOMALY":22.6875,"EPHEMERIS_TYPE":0,"CLASSIFICATION_TYPE":"U","NORAD_CAT_ID":16791,"ELEMENT_SET_NO":999,"REV_AT_EPOCH":16610,"BSTAR":0.00027304427,"MEAN_MOTION_DOT":7.006e-5,"MEAN_MOTION_DDOT":0}]
